[{"OBJECT_NAME":"FLOCK 4H-26","OBJECT_ID":"2025-276BR","EPOCH":"2026-03-09T16:57:19.420128","MEAN_MOTION":15.18363903,"ECCENTRICITY":0.00047713,"INCLINATION":97.4257,"RA_OF_ASC_NODE":143.8885,"ARG_OF_PERICENTER":14.6559,"MEAN_ANOMALY":345.4813,"EPHEMERIS_TYPE":0,"CLASSIFICATION_TYPE":"U","NORAD_CAT_ID":66729,"ELEMENT_SET_NO":999,"REV_AT_EPOCH":1531,"BSTAR":0.00037006955,"MEAN_MOTION_DOT":7.54e-5,"MEAN_MOTION_DDOT":0},{"OBJECT_NAME":"STARLINK-35764","OBJECT_ID":"2025-299H","EPOCH":"2026-03-09T22:00:01.999584","MEAN_MOTION":15.33219164,"ECCENTRICITY":0.00011543,"INCLINATION":43.0006,"RA_OF_ASC_NODE":167.6811,"ARG_OF_PERICENTER":268.9398,"MEAN_ANOMALY":10.8948,"EPHEMERIS_TYPE":0,"CLASSIFICATION_TYPE":"U","NORAD_CAT_ID":67109,"ELEMENT_SET_NO":999,"REV_AT_EPOCH":589,"BSTAR":-0.068626108,"MEAN_MOTION_DOT":-0.02032733,"MEAN_MOTION_DDOT":0}]
